NORAD_CAT_ID,OBJECT_NAME,OBJECT_TYPE,EPOCH,MEAN_MOTION,ECCENTRICITY,INCLINATION,RA_OF_ASC_NODE,ARG_OF_PERICENTER,MEAN_ANOMALY,BSTAR,MEAN_MOTION_DOT,MEAN_MOTION_DDOT,TLE_LINE0,TLE_LINE1,TLE_LINE2,SEMIMAJOR_AXIS,PERIOD,APOGEE,PERIGEE,DECAYED
53394.0,STARLINK-4544,PAYLOAD,2024-01-08 22:43:09,15.08842518,0.0001337,53.2165,63.516,86.7089,273.4056,4.9664e-05,5.03e-06,0.0,0 STARLINK-4544,1 53394U 22097G   24008.94664161  .00000503  00000-0  49664-4 0  9996,2 53394  53.2165  63.5160 0001337  86.7089 273.4056 15.08842518 78791,6917.873,95.437,540.663,538.813,0.0
53394.0,STARLINK-4544,PAYLOAD,2024-01-09 13:01:37,15.08847778,0.0001605,53.2174,60.8408,108.5779,251.5388,3.5265e-05,2.73e-06,0.0,0 STARLINK-4544,1 53394U 22097G   24009.54279742  .00000273  00000-0  35265-4 0  9996,2 53394  53.2174  60.8408 0001605 108.5779 251.5388 15.08847778 79534,6917.857,95.437,540.832,538.611,0.0
53394.0,STARLINK-4544,PAYLOAD,2024-01-10 09:41:39,15.08836468,0.0001909,53.2178,56.9743,123.0168,237.1008,-8.4453e-06,-4.23e-06,0.0,0 STARLINK-4544,1 53394U 22097G   24010.40392502 -.00000423  00000-0 -84453-5 0  9996,2 53394  53.2178  56.9743 0001909 123.0168 237.1008 15.08836468 79013,6917.891,95.438,541.077,538.436,0.0
53394.0,STARLINK-4544,PAYLOAD,2024-01-11 09:32:25,15.08846902,0.0001484,53.2183,52.5172,94.0132,266.103,0.00011102,1.48e-05,0.0,0 STARLINK-4544,1 53394U 22097G   24011.39751674  .00001480  00000-0  11102-3 0  9995,2 53394  53.2183  52.5172 0001484  94.0132 266.1030 15.08846902 79160,6917.859,95.437,540.751,538.698,0.0
53394.0,STARLINK-4544,PAYLOAD,2024-01-12 03:01:41,15.08828087,0.0001512,53.2184,49.2462,101.6277,258.4885,8.9859e-06,-1.45e-06,0.0,0 STARLINK-4544,1 53394U 22097G   24012.12617265 -.00000145  00000-0  89859-5 0  9998,2 53394  53.2184  49.2462 0001512 101.6277 258.4885 15.08828087 79271,6917.917,95.438,540.828,538.736,0.0
53394.0,STARLINK-4544,PAYLOAD,2024-01-12 12:33:59,15.0883682,0.0001479,53.2164,47.4567,100.9844,259.1315,4.5327e-05,4.33e-06,0.0,0 STARLINK-4544,1 53394U 22097G   24012.52360780  .00000433  00000-0  45327-4 0  9999,2 53394  53.2164  47.4567 0001479 100.9844 259.1315 15.08836820 79987,6917.89,95.438,540.778,538.732,0.0
53394.0,STARLINK-4544,PAYLOAD,2024-01-13 09:14:00,15.08837666,0.0001849,53.2174,43.5912,118.7948,241.323,1.1469e-05,-1.06e-06,0.0,0 STARLINK-4544,1 53394U 22097G   24013.38473056 -.00000106  00000-0  11469-4 0  9993,2 53394  53.2174  43.5912 0001849 118.7948 241.3230 15.08837666 80117,6917.888,95.438,541.032,538.473,0.0
53394.0,STARLINK-4544,PAYLOAD,2024-01-14 09:04:48,15.08835016,0.0001731,53.2195,39.1393,77.3258,282.7927,0.00013194,1.812e-05,0.0,0 STARLINK-4544,1 53394U 22097G   24014.37833674  .00001812  00000-0  13194-3 0  9999,2 53394  53.2195  39.1393 0001731  77.3258 282.7927 15.08835016 79610,6917.896,95.438,540.958,538.563,0.0
53394.0,STARLINK-4544,PAYLOAD,2024-01-15 10:30:57,15.08849066,0.0001848,53.2186,34.3751,116.9702,243.1479,0.00022158,3.241e-05,0.0,0 STARLINK-4544,1 53394U 22097G   24015.43816634  .00003241  00000-0  22158-3 0  9992,2 53394  53.2186  34.3751 0001848 116.9702 243.1479 15.08849066 79778,6917.853,95.437,540.996,538.439,0.0
53394.0,STARLINK-4544,PAYLOAD,2024-01-16 00:49:27,15.0883703,0.0001744,53.2196,31.7028,70.2233,289.8948,2.505e-05,1.11e-06,0.0,0 STARLINK-4544,1 53394U 22097G   24016.03434241  .00000111  00000-0  25050-4 0  9997,2 53394  53.2196  31.7028 0001744  70.2233 289.8948 15.08837030 79869,6917.889,95.438,540.961,538.548,0.0
53394.0,STARLINK-4544,PAYLOAD,2024-01-16 10:21:45,15.08841791,0.0001898,53.2199,29.9176,84.2001,275.9208,4.2001e-05,3.8e-06,0.0,0 STARLINK-4544,1 53394U 22097G   24016.43177858  .00000380  00000-0  42001-4 0  9992,2 53394  53.2199  29.9176 0001898  84.2001 275.9208 15.08841791 80577,6917.875,95.437,541.053,538.427,0.0
53394.0,STARLINK-4544,PAYLOAD,2024-01-17 03:50:59,15.08846101,0.0001556,53.2182,26.6426,100.8544,259.2623,1.3952e-06,-2.66e-06,0.0,0 STARLINK-4544,1 53394U 22097G   24017.16041545 -.00000266  00000-0  13952-5 0  9994,2 53394  53.2182  26.6426 0001556 100.8544 259.2623 15.08846101 80036,6917.862,95.437,540.803,538.65,0.0
53394.0,STARLINK-4544,PAYLOAD,2024-01-17 07:01:45,15.08849608,0.0001648,53.219,26.0487,91.1003,269.0178,3.9781e-05,3.45e-06,0.0,0 STARLINK-4544,1 53394U 22097G   24017.29289334  .00000345  00000-0  39781-4 0  9992,2 53394  53.2190  26.0487 0001648  91.1003 269.0178 15.08849608 80703,6917.851,95.437,540.856,538.576,0.0
53394.0,STARLINK-4544,PAYLOAD,2024-01-18 03:41:47,15.08839531,0.0001637,53.2187,22.1834,99.248,260.8697,4.2456e-05,3.88e-06,0.0,0 STARLINK-4544,1 53394U 22097G   24018.15402025  .00000388  00000-0  42456-4 0  9992,2 53394  53.2187  22.1834 0001637  99.2480 260.8697 15.08839531 80189,6917.882,95.438,540.879,538.614,0.0
53394.0,STARLINK-4544,PAYLOAD,2024-01-18 10:03:19,15.08843523,0.000157,53.2178,20.9923,100.0435,260.0734,7.8667e-05,9.64e-06,0.0,0 STARLINK-4544,1 53394U 22097G   24018.41897650  .00000964  00000-0  78667-4 0  9996,2 53394  53.2178  20.9923 0001570 100.0435 260.0734 15.08843523 80877,6917.87,95.437,540.821,538.649,0.0
53394.0,STARLINK-4544,PAYLOAD,2024-01-19 06:43:19,15.08853161,0.0001468,53.2174,17.1242,83.6739,276.442,0.00010312,1.354e-05,0.0,0 STARLINK-4544,1 53394U 22097G   24019.28009077  .00001354  00000-0  10312-3 0  9996,2 53394  53.2174  17.1242 0001468  83.6739 276.4420 15.08853161 80359,6917.84,95.437,540.721,538.69,0.0
53394.0,STARLINK-4544,PAYLOAD,2024-01-20 03:23:21,15.08838123,0.0001726,53.2175,13.2587,112.5749,247.5426,6.8791e-05,8.07e-06,0.0,0 STARLINK-4544,1 53394U 22097G   24020.14121948  .00000807  00000-0  68791-4 0  9992,2 53394  53.2175  13.2587 0001726 112.5749 247.5426 15.08838123 80489,6917.886,95.438,540.945,538.557,0.0
53394.0,STARLINK-4544,PAYLOAD,2024-01-20 06:34:07,15.08839117,0.0001439,53.218,12.6631,92.0166,268.0991,8.057e-05,9.95e-06,0.0,0 STARLINK-4544,1 53394U 22097G   24020.27370055  .00000995  00000-0  80570-4 0  9998,2 53394  53.2180  12.6631 0001439  92.0166 268.0991 15.08839117 81158,6917.883,95.438,540.744,538.753,0.0
53394.0,STARLINK-4544,PAYLOAD,2024-01-21 06:24:54,15.08846169,0.0001425,53.218,8.2068,88.4738,271.6417,7.6434e-05,9.29e-06,0.0,0 STARLINK-4544,1 53394U 22097G   24021.26729841  .00000929  00000-0  76434-4 0  9990,2 53394  53.2180   8.2068 0001425  88.4738 271.6417 15.08846169 80654,6917.862,95.437,540.712,538.741,0.0
53394.0,STARLINK-4544,PAYLOAD,2024-01-22 03:04:55,15.08839714,0.0001354,53.2184,4.3402,83.8965,276.2181,9.5253e-05,1.228e-05,0.0,0 STARLINK-4544,1 53394U 22097G   24022.12842162  .00001228  00000-0  95253-4 0  9991,2 53394  53.2184   4.3402 0001354  83.8965 276.2181 15.08839714 80780,6917.881,95.438,540.683,538.81,0.0
53394.0,STARLINK-4544,PAYLOAD,2024-01-22 06:15:41,15.08845283,0.0001568,53.2193,3.7484,74.2928,285.8237,0.00013382,1.843e-05,0.0,0 STARLINK-4544,1 53394U 22097G   24022.26089891  .00001843  00000-0  13382-3 0  9993,2 53394  53.2193   3.7484 0001568  74.2928 285.8237 15.08845283 81454,6917.864,95.437,540.814,538.645,0.0
53394.0,STARLINK-4544,PAYLOAD,2024-01-22 07:51:04,15.0884698,0.0001543,53.2197,3.4514,89.8156,270.3013,0.00014819,2.072e-05,0.0,0 STARLINK-4544,1 53394U 22097G   24022.32713660  .00002072  00000-0  14819-3 0  9999,2 53394  53.2197   3.4514 0001543  89.8156 270.3013 15.08846980 80812,6917.859,95.437,540.791,538.657,0.0
53394.0,STARLINK-4544,PAYLOAD,2024-01-23 02:55:42,15.08837344,0.0001419,53.2192,359.8794,96.6548,263.4605,4.6086e-05,4.46e-06,0.0,0 STARLINK-4544,1 53394U 22097G   24023.12202472  .00000446  00000-0  46086-4 0  9997,2 53394  53.2192 359.8794 0001419  96.6548 263.4605 15.08837344 80935,6917.889,95.438,540.735,538.772,0.0
53394.0,STARLINK-4544,PAYLOAD,2024-01-23 06:06:28,15.08842269,0.0001522,53.2188,359.2882,87.2292,272.8874,0.00010185,1.333e-05,0.0,0 STARLINK-4544,1 53394U 22097G   24023.25450221  .00001333  00000-0  10185-3 0  9994,2 53394  53.2188 359.2882 0001522  87.2292 272.8874 15.08842269 81608,6917.873,95.437,540.791,538.686,0.0
53394.0,STARLINK-4544,PAYLOAD,2024-01-24 02:46:29,15.08848623,0.0001604,53.2188,355.4244,88.3958,271.7218,3.1254e-05,2.1e-06,0.0,0 STARLINK-4544,1 53394U 22097G   24024.11561940  .00000210  00000-0  31254-4 0  9995,2 53394  53.2188 355.4244 0001604  88.3958 271.7218 15.08848623 81082,6917.854,95.437,540.829,538.609,0.0
53394.0,STARLINK-4544,PAYLOAD,2024-01-24 04:21:52,15.0885114,0.0001672,53.2191,355.1284,83.6906,276.4276,6.1716e-05,6.95e-06,0.0,0 STARLINK-4544,1 53394U 22097G   24024.18185849  .00000695  00000-0  61716-4 0  9995,2 53394  53.2191 355.1284 0001672  83.6906 276.4276 15.08851140 81740,6917.846,95.437,540.868,538.555,0.0
53394.0,STARLINK-4544,PAYLOAD,2024-01-25 02:37:17,15.08838514,0.0001976,53.2186,350.9712,67.6033,292.5168,2.9927e-05,1.88e-06,0.0,0 STARLINK-4544,1 53394U 22097G   24025.10922856  .00000188  00000-0  29927-4 0  9990,2 53394  53.2186 350.9712 0001976  67.6033 292.5168 15.08838514 81236,6917.885,95.438,541.117,538.383,0.0
53394.0,STARLINK-4544,PAYLOAD,2024-01-25 04:12:40,15.08840321,0.000203,53.2194,350.6723,66.4346,293.686,3.9475e-05,3.4e-06,0.0,0 STARLINK-4544,1 53394U 22097G   24025.17546863  .00000340  00000-0  39475-4 0  9996,2 53394  53.2194 350.6723 0002030  66.4346 293.6860 15.08840321 81892,6917.879,95.438,541.149,538.34,0.0
53394.0,STARLINK-4544,PAYLOAD,2024-01-26 04:03:27,15.08834132,0.0001711,53.2194,346.2046,100.411,259.7075,0.00014677,2.048e-05,0.0,0 STARLINK-4544,1 53394U 22097G   24026.16906612  .00002048  00000-0  14677-3 0  9991,2 53394  53.2194 346.2046 0001711 100.4110 259.7075 15.08834132 81393,6917.898,95.438,540.947,538.58,0.0
53394.0,STARLINK-4544,PAYLOAD,2024-01-27 07:05:00,15.08838316,0.0001651,53.2191,341.1439,96.3346,263.7835,9.0911e-05,1.159e-05,0.0,0 STARLINK-4544,1 53394U 22097G   24027.29514840  .00001159  00000-0  90911-4 0  9992,2 53394  53.2191 341.1439 0001651  96.3346 263.7835 15.08838316 81563,6917.886,95.438,540.893,538.608,0.0
